ONEWEB-0446             
1 51640U 22012U   25317.61346166 -.00000266  00000+0 -79883-3 0  9997
2 51640  87.8800  79.2633 0001580  91.8929 268.2379 13.10377864181097
ONEWEB-0448             
1 51641U 22012V   25317.61844674 -.00000024  00000+0 -10463-3 0  9996
2 51641  87.8799  79.2621 0001593 104.2137 255.9167 13.10377734181067
ONEWEB-0449             
1 51642U 22012W   25317.62343266  .00000219  00000+0  59140-3 0  9998
2 51642  87.8805  79.2311 0001114 110.2464 249.8783 13.10377587181074
ONEWEB-0451             
1 51643U 22012X   25317.24636623  .00000046  00000+0  86234-4 0  9992
2 51643  87.9142  48.7690 0001588 104.2184 255.9124 13.17651989185224
ONEWEB-0452             
1 51644U 22012Y   25317.24468831  .00000050  00000+0  96530-4 0  9992
2 51644  87.9130  48.8266 0001552 111.8743 248.2554 13.17650197185231
ONEWEB-0456             
1 51646U 22012AA  25317.63339943  .00000709  00000+0  19950-2 0  9998
2 51646  87.8809  79.1962 0001707 101.9377 258.1942 13.10376267181110
ONEWEB-0457             
1 51647U 22012AB  25317.38106646 -.00000340  00000+0 -10091-2 0  9993
2 51647  87.8798  79.2973 0001155  92.1555 267.9704 13.10376867181083
ONEWEB-0458             
1 51648U 22012AC  25317.40267454  .00000562  00000+0  15726-2 0  9996
2 51648  87.8805  79.2646 0001426 106.2914 253.8370 13.10375607181047
